{"type": "FeatureCollection", "features": [ {"type": "Feature", "properties": {"norad_id": 66540, "name": "STARLINK-35818", "group": "last-30-days", "lat": 33.79805929073441, "lon": 121.81758503217877, "alt_km": 398.2928870646283, "timestamp": "2025-12-08T23:34:02.739739+00:00", "meta": {"OBJECT_NAME": "STARLINK-35818", "OBJECT_ID": "2025-265AA", "EPOCH": "2025-12-08T14:00:01.999872", "MEAN_MOTION": 15.56463071, "ECCENTRICITY": 0.00014253, "INCLINATION": 43.0003, "RA_OF_ASC_NODE": 78.2493, "ARG_OF_PERICENTER": 282.9199, "MEAN_ANOMALY": 56.829, "EPHEMERIS_TYPE": 0, "CLASSIFICATION_TYPE": "U", "NORAD_CAT_ID": 66540, "ELEMENT_SET_NO": 999, "REV_AT_EPOCH": 432, "BSTAR": -0.031924509, "MEAN_MOTION_DOT": -0.02068627, "MEAN_MOTION_DDOT": 0}, "tle": {"line1": "1 66540U 25265AA  25342.58335648 -.02068627  00000+0 -31925-1 0  9992", "line2": "2 66540  43.0003  78.2493 0001425 282.9199  56.8290 15.56463071  4325"}}, "geometry": {"type": "Point", "coordinates": [121.81758503217877, 33.79805929073441]}}, {"type": "Feature", "properties": {"norad_id": 66541, "name": "STARLINK-35796", "group": "last-30-days", "lat": 34.69172537666447, "lon": 123.86864869624416, "alt_km": 398.26887293326126, "timestamp": "2025-12-08T23:34:02.739749+00:00", "meta": {"OBJECT_NAME": "STARLINK-35796", "OBJECT_ID": "2025-265AB", "EPOCH": "2025-12-08T14:00:01.999872", "MEAN_MOTION": 15.56464746, "ECCENTRICITY": 0.00014906, "INCLINATION": 43.0003, "RA_OF_ASC_NODE": 78.2444, "ARG_OF_PERICENTER": 280.397, "MEAN_ANOMALY": 61.2703, "EPHEMERIS_TYPE": 0, "CLASSIFICATION_TYPE": "U", "NORAD_CAT_ID": 66541, "ELEMENT_SET_NO": 999, "REV_AT_EPOCH": 432, "BSTAR": -0.031986209, "MEAN_MOTION_DOT": -0.02072351, "MEAN_MOTION_DDOT": 0}, "tle": {"line1": "1 66541U 25265AB  25342.58335648 -.02072351  00000+0 -31986-1 0  9999", "line2": "2 66541  43.0003  78.2444 0001490 280.3970  61.2703 15.56464746  4322"}}, "geometry": {"type": "Point", "coordinates": [123.86864869624416, 34.69172537666447]}}, {"type": "Feature", "properties": {"norad_id": 66542, "name": "STARLINK-35833", "group": "last-30-days", "lat": 35.54988827148662, "lon": 125.96335867265682, "alt_km": 398.13983420071327, "timestamp": "2025-12-08T23:34:02.739759+00:00", "meta": {"OBJECT_NAME": "STARLINK-35833", "OBJECT_ID": "2025-265AC", "EPOCH": "2025-12-08T14:00:01.999872", "MEAN_MOTION": 15.56467229, "ECCENTRICITY": 0.00015332, "INCLINATION": 43.0004, "RA_OF_ASC_NODE": 78.24, "ARG_OF_PERICENTER": 283.0059, "MEAN_ANOMALY": 60.5775, "EPHEMERIS_TYPE": 0, "CLASSIFICATION_TYPE": "U", "NORAD_CAT_ID": 66542, "ELEMENT_SET_NO": 999, "REV_AT_EPOCH": 432, "BSTAR": -0.0320641, "MEAN_MOTION_DOT": -0.0207705, "MEAN_MOTION_DDOT": 0}, "tle": {"line1": "1 66542U 25265AC  25342.58335648 -.02077050  00000+0 -32064-1 0  9999", "line2": "2 66542  43.0004  78.2400 0001533 283.0059  60.5775 15.56467229  4322"}}, "geometry": {"type": "Point", "coordinates": [125.96335867265682, 35.54988827148662]}}, {"type": "Feature", "properties": {"norad_id": 66543, "name": "STARLINK-35315", "group": "last-30-days", "lat": 36.37046918584656, "lon": 128.1005672276989, "alt_km": 398.0680096036367, "timestamp": "2025-12-08T23:34:02.739796+00:00", "meta": {"OBJECT_NAME": "STARLINK-35315", "OBJECT_ID": "2025-265AD", "EPOCH": "2025-12-08T14:00:01.999872", "MEAN_MOTION": 15.56469842, "ECCENTRICITY": 0.0001546, "INCLINATION": 43.0004, "RA_OF_ASC_NODE": 78.2346, "ARG_OF_PERICENTER": 281.8043, "MEAN_ANOMALY": 63.6931, "EPHEMERIS_TYPE": 0, "CLASSIFICATION_TYPE": "U", "NORAD_CAT_ID": 66543, "ELEMENT_SET_NO": 999, "REV_AT_EPOCH": 421, "BSTAR": -0.032082718, "MEAN_MOTION_DOT": -0.02078316, "MEAN_MOTION_DDOT": 0}, "tle": {"line1": "1 66543U 25265AD  25342.58335648 -.02078316  00000+0 -32083-1 0  9997", "line2": "2 66543  43.0004  78.2346 0001546 281.8043  63.6931 15.56469842  4214"}}, "geometry": {"type": "Point", "coordinates": [128.1005672276989, 36.37046918584656]}}, {"type": "Feature", "properties": {"norad_id": 66544, "name": "STARLINK-35728", "group": "last-30-days", "lat": 37.15190079760012, "lon": 130.28317961201006, "alt_km": 397.963460476175, "timestamp": "2025-12-08T23:34:02.739808+00:00", "meta": {"OBJECT_NAME": "STARLINK-35728", "OBJECT_ID": "2025-265AE", "EPOCH": "2025-12-08T14:00:01.999872", "MEAN_MOTION": 15.56466616, "ECCENTRICITY": 0.00014688, "INCLINATION": 43.0003, "RA_OF_ASC_NODE": 78.23, "ARG_OF_PERICENTER": 280.2779, "MEAN_ANOMALY": 67.1401, "EPHEMERIS_TYPE": 0, "CLASSIFICATION_TYPE": "U", "NORAD_CAT_ID": 66544, "ELEMENT_SET_NO": 999, "REV_AT_EPOCH": 432, "BSTAR": -0.032043592, "MEAN_MOTION_DOT": -0.02075781, "MEAN_MOTION_DDOT": 0}, "tle": {"line1": "1 66544U 25265AE  25342.58335648 -.02075781  00000+0 -32044-1 0  9998", "line2": "2 66544  43.0003  78.2300 0001468 280.2779  67.1401 15.56466616  4325"}}, "geometry": {"type": "Point", "coordinates": [130.28317961201006, 37.15190079760012]}}, {"type": "Feature", "properties": {"norad_id": 66545, "name": "SHIJIAN-30A", "group": "last-30-days", "lat": -51.77678958909043, "lon": -98.65498083679965, "alt_km": 521.3093169474087, "timestamp": "2025-12-08T23:34:02.739818+00:00", "meta": {"OBJECT_NAME": "SHIJIAN-30A", "OBJECT_ID": "2025-266A", "EPOCH": "2025-12-08T14:27:52.729632", "MEAN_MOTION": 15.1552113, "ECCENTRICITY": 0.0012784, "INCLINATION": 51.7994, "RA_OF_ASC_NODE": 352.243, "ARG_OF_PERICENTER": 341.3952, "MEAN_ANOMALY": 18.6556, "EPHEMERIS_TYPE": 0, "CLASSIFICATION_TYPE": "U", "NORAD_CAT_ID": 66545, "ELEMENT_SET_NO": 999, "REV_AT_EPOCH": 295, "BSTAR": 0.00072684, "MEAN_MOTION_DOT": 0.00013688, "MEAN_MOTION_DDOT": 0}, "tle": {"line1": "1 66545U 25266A   25342.60269363  .00013688  00000+0  72684-3 0  9993", "line2": "2 66545  51.7994 352.2430 0012784 341.3952  18.6556 15.15521130  2952"}}, "geometry": {"type": "Point", "coordinates": [-98.65498083679965, -51.77678958909043]}}, {"type": "Feature", "properties": {"norad_id": 66546, "name": "SHIJIAN-30B", "group": "last-30-days", "lat": -51.66226564240926, "lon": -104.75620453675522, "alt_km": 522.3612808977578, "timestamp": "2025-12-08T23:34:02.739828+00:00", "meta": {"OBJECT_NAME": "SHIJIAN-30B", "OBJECT_ID": "2025-266B", "EPOCH": "2025-12-08T14:28:55.257312", "MEAN_MOTION": 15.1561103, "ECCENTRICITY": 0.001046, "INCLINATION": 51.7977, "RA_OF_ASC_NODE": 352.245, "ARG_OF_PERICENTER": 344.4938, "MEAN_ANOMALY": 15.5716, "EPHEMERIS_TYPE": 0, "CLASSIFICATION_TYPE": "U", "NORAD_CAT_ID": 66546, "ELEMENT_SET_NO": 999, "REV_AT_EPOCH": 295, "BSTAR": 0.00084175, "MEAN_MOTION_DOT": 0.00015938, "MEAN_MOTION_DDOT": 0}, "tle": {"line1": "1 66546U 25266B   25342.60341733  .00015938  00000+0  84175-3 0  9994", "line2": "2 66546  51.7977 352.2450 0010460 344.4938  15.5716 15.15611030  2956"}}, "geometry": {"type": "Point", "coordinates": [-104.75620453675522, -51.66226564240926]}}, {"type": "Feature", "properties": {"norad_id": 66547, "name": "SHIJIAN-30C", "group": "last-30-days", "lat": -51.24870498961325, "lon": -110.6566592785952, "alt_km": 521.6678763458767, "timestamp": "2025-12-08T23:34:02.739841+00:00", "meta": {"OBJECT_NAME": "SHIJIAN-30C", "OBJECT_ID": "2025-266C", "EPOCH": "2025-12-08T17:39:47.833056", "MEAN_MOTION": 15.15625679, "ECCENTRICITY": 0.0011371, "INCLINATION": 51.7986, "RA_OF_ASC_NODE": 351.6329, "ARG_OF_PERICENTER": 337.2466, "MEAN_ANOMALY": 22.8005, "EPHEMERIS_TYPE": 0, "CLASSIFICATION_TYPE": "U", "NORAD_CAT_ID": 66547, "ELEMENT_SET_NO": 999, "REV_AT_EPOCH": 297, "BSTAR": 0.00078242, "MEAN_MOTION_DOT": 0.000148, "MEAN_MOTION_DDOT": 0}, "tle": {"line1": "1 66547U 25266C   25342.73597029  .00014800  00000+0  78242-3 0  9995", "line2": "2 66547  51.7986 351.6329 0011371 337.2466  22.8005 15.15625679  2971"}}, "geometry": {"type": "Point", "coordinates": [-110.6566592785952, -51.24870498961325]}}, {"type": "Feature", "properties": {"norad_id": 66548, "name": "CZ-2C R/B", "group": "last-30-days", "lat": -22.93380916831107, "lon": -171.54402052019984, "alt_km": 440.95480167936876, "timestamp": "2025-12-08T23:34:02.739851+00:00", "meta": {"OBJECT_NAME": "CZ-2C R/B", "OBJECT_ID": "2025-266D", "EPOCH": "2025-12-08T11:41:13.292160", "MEAN_MOTION": 15.30043808, "ECCENTRICITY": 0.0084198, "INCLINATION": 52.0568, "RA_OF_ASC_NODE": 351.5381, "ARG_OF_PERICENTER": 158.5167, "MEAN_ANOMALY": 201.9387, "EPHEMERIS_TYPE": 0, "CLASSIFICATION_TYPE": "U", "NORAD_CAT_ID": 66548, "ELEMENT_SET_NO": 999, "REV_AT_EPOCH": 296, "BSTAR": 0.00042890925, "MEAN_MOTION_DOT": 0.00013724, "MEAN_MOTION_DDOT": 0}, "tle": {"line1": "1 66548U 25266D   25342.48695940  .00013724  00000+0  42891-3 0  9994", "line2": "2 66548  52.0568 351.5381 0084198 158.5167 201.9387 15.30043808  2965"}}, "geometry": {"type": "Point", "coordinates": [-171.54402052019984, -22.93380916831107]}}, {"type": "Feature", "properties": {"norad_id": 66549, "name": "SHIJIAN-28", "group": "last-30-days", "lat": 6.261077026723257, "lon": -53.3213296859393, "alt_km": 27881.427489289334, "timestamp": "2025-12-08T23:34:02.739867+00:00", "meta": {"OBJECT_NAME": "SHIJIAN-28", "OBJECT_ID": "2025-277A", "EPOCH": "2025-12-01T04:36:42.476256", "MEAN_MOTION": 2.08595383, "ECCENTRICITY": 0.6308324, "INCLINATION": 11.5392, "RA_OF_ASC_NODE": 275.706, "ARG_OF_PERICENTER": 179.9335, "MEAN_ANOMALY": 180.3971, "EPHEMERIS_TYPE": 0, "CLASSIFICATION_TYPE": "U", "NORAD_CAT_ID": 66549, "ELEMENT_SET_NO": 999, "REV_AT_EPOCH": 5, "BSTAR": 0, "MEAN_MOTION_DOT": -3.3e-07, "MEAN_MOTION_DDOT": 0}, "tle": {"line1": "1 66549U 25277A   25335.19215829 -.00000033  00000+0  00000+0 0  9993", "line2": "2 66549  11.5392 275.7060 6308324 179.9335 180.3971  2.08595383    50"}}, "geometry": {"type": "Point", "coordinates": [-53.3213296859393, 6.261077026723257]}}]}